{
  "type": "Feature",
  "properties": {
    "name": "Kathmandu Ring Road Delivery Boundary",
    "areaSquareKm": 42.97070339626167
  },
  "geometry": {
    "type": "Polygon",
    "coordinates": [
      [
        [
          85.3075842,
          27.7352167
        ],
        [
          85.3077534,
          27.7351878
        ],
        [
          85.3081216,
          27.7351287
        ],
        [
          85.3082719,
          27.7351093
        ],
        [
          85.3092322,
          27.7349403
        ],
        [
          85.3094608,
          27.734909
        ],
        [
          85.3097038,
          27.7348771
        ],
        [
          85.3100033,
          27.7348517
        ],
        [
          85.3102393,
          27.7348232
        ],
        [
          85.3105508,
          27.7347962
        ],
        [
          85.3108771,
          27.7347829
        ],
        [
          85.3110888,
          27.7347752
        ],
        [
          85.3114199,
          27.7347844
        ],
        [
          85.3118396,
          27.7347963
        ],
        [
          85.3120522,
          27.7348066
        ],
        [
          85.3122648,
          27.7348168
        ],
        [
          85.3127311,
          27.7348406
        ],
        [
          85.3137884,
          27.7348986
        ],
        [
          85.3142055,
          27.7349285
        ],
        [
          85.3144905,
          27.7349302
        ],
        [
          85.3146154,
          27.7349404
        ],
        [
          85.3150951,
          27.7349605
        ],
        [
          85.3156625,
          27.7349987
        ],
        [
          85.3161333,
          27.7350199
        ],
        [
          85.3164801,
          27.735036
        ],
        [
          85.3168094,
          27.7350553
        ],
        [
          85.3172916,
          27.7350636
        ],
        [
          85.3175087,
          27.7350687
        ],
        [
          85.3176995,
          27.7350732
        ],
        [
          85.3180817,
          27.73509
        ],
        [
          85.3184796,
          27.7351293
        ],
        [
          85.3185453,
          27.7351342
        ],
        [
          85.3186812,
          27.7351443
        ],
        [
          85.3188678,
          27.7351598
        ],
        [
          85.3189729,
          27.7351683
        ],
        [
          85.3192267,
          27.7352031
        ],
        [
          85.3193972,
          27.7352208
        ],
        [
          85.3196772,
          27.7352662
        ],
        [
          85.3199602,
          27.7353245
        ],
        [
          85.3201271,
          27.7353679
        ],
        [
          85.3203386,
          27.7354248
        ],
        [
          85.3206228,
          27.7355116
        ],
        [
          85.3208687,
          27.7356015
        ],
        [
          85.3210481,
          27.7356683
        ],
        [
          85.3213334,
          27.7357991
        ],
        [
          85.3213912,
          27.7358334
        ],
        [
          85.3216499,
          27.7359743
        ],
        [
          85.3217345,
          27.7360244
        ],
        [
          85.3220413,
          27.7362104
        ],
        [
          85.322218,
          27.7363172
        ],
        [
          85.3227572,
          27.7366284
        ],
        [
          85.322958,
          27.7367505
        ],
        [
          85.3233865,
          27.737006
        ],
        [
          85.323474,
          27.737062
        ],
        [
          85.3249332,
          27.7379498
        ],
        [
          85.3250673,
          27.7380304
        ],
        [
          85.3251905,
          27.7381061
        ],
        [
          85.3256265,
          27.7383691
        ],
        [
          85.325942,
          27.7385722
        ],
        [
          85.3265708,
          27.7389463
        ],
        [
          85.3271293,
          27.7392787
        ],
        [
          85.3278602,
          27.7397166
        ],
        [
          85.3279036,
          27.7397426
        ],
        [
          85.3281297,
          27.7398844
        ],
        [
          85.3288214,
          27.740318
        ],
        [
          85.3293125,
          27.7406148
        ],
        [
          85.329379,
          27.7406521
        ],
        [
          85.3297046,
          27.7408507
        ],
        [
          85.3302069,
          27.7411571
        ],
        [
          85.3307914,
          27.7415219
        ],
        [
          85.3309173,
          27.7416005
        ],
        [
          85.3312359,
          27.7417964
        ],
        [
          85.331521,
          27.7419499
        ],
        [
          85.3315424,
          27.741959
        ],
        [
          85.3316898,
          27.7420064
        ],
        [
          85.3318866,
          27.7420691
        ],
        [
          85.3320162,
          27.7421014
        ],
        [
          85.3321595,
          27.7421226
        ],
        [
          85.3322731,
          27.7421378
        ],
        [
          85.332366,
          27.7421479
        ],
        [
          85.3324544,
          27.7421539
        ],
        [
          85.3325556,
          27.7421569
        ],
        [
          85.3327485,
          27.7421484
        ],
        [
          85.3328682,
          27.7421262
        ],
        [
          85.3329938,
          27.7420975
        ],
        [
          85.333123,
          27.7420563
        ],
        [
          85.3331724,
          27.7420386
        ],
        [
          85.3333938,
          27.7419528
        ],
        [
          85.3336057,
          27.7418548
        ],
        [
          85.3342049,
          27.7415206
        ],
        [
          85.3355838,
          27.7408075
        ],
        [
          85.3360473,
          27.740556
        ],
        [
          85.3361267,
          27.7405211
        ],
        [
          85.3365893,
          27.7402928
        ],
        [
          85.3368865,
          27.7401272
        ],
        [
          85.3369264,
          27.7401043
        ],
        [
          85.3371159,
          27.7399982
        ],
        [
          85.3374051,
          27.7398525
        ],
        [
          85.3384205,
          27.7393409
        ],
        [
          85.3385596,
          27.7392616
        ],
        [
          85.3390313,
          27.7389949
        ],
        [
          85.3392313,
          27.7388918
        ],
        [
          85.3394394,
          27.7387536
        ],
        [
          85.3396209,
          27.7386236
        ],
        [
          85.3398037,
          27.7384744
        ],
        [
          85.3400901,
          27.7382047
        ],
        [
          85.3402336,
          27.7380579
        ],
        [
          85.3403526,
          27.737919
        ],
        [
          85.3403882,
          27.7378773
        ],
        [
          85.3404714,
          27.7377758
        ],
        [
          85.3406266,
          27.7375624
        ],
        [
          85.340789,
          27.7373205
        ],
        [
          85.3411639,
          27.7367344
        ],
        [
          85.3413313,
          27.7364713
        ],
        [
          85.3415569,
          27.7361223
        ],
        [
          85.3418001,
          27.7357372
        ],
        [
          85.342239,
          27.7350644
        ],
        [
          85.3423145,
          27.7349381
        ],
        [
          85.3424264,
          27.7347609
        ],
        [
          85.342603,
          27.734485
        ],
        [
          85.3426607,
          27.7343956
        ],
        [
          85.3428238,
          27.7341337
        ],
        [
          85.342969,
          27.7338934
        ],
        [
          85.3431512,
          27.7336088
        ],
        [
          85.3434463,
          27.7331479
        ],
        [
          85.3436976,
          27.7327629
        ],
        [
          85.3437985,
          27.7325983
        ],
        [
          85.3440394,
          27.7321764
        ],
        [
          85.3440945,
          27.7320867
        ],
        [
          85.3443282,
          27.731706
        ],
        [
          85.3446318,
          27.731303
        ],
        [
          85.3448049,
          27.731036
        ],
        [
          85.3450031,
          27.730717
        ],
        [
          85.345289,
          27.7302561
        ],
        [
          85.3454088,
          27.7300574
        ],
        [
          85.3454727,
          27.7299535
        ],
        [
          85.3455133,
          27.7298854
        ],
        [
          85.3456388,
          27.7296804
        ],
        [
          85.3457283,
          27.7295157
        ],
        [
          85.345764,
          27.7294462
        ],
        [
          85.3458001,
          27.7293594
        ],
        [
          85.345831,
          27.7292705
        ],
        [
          85.3458603,
          27.7291798
        ],
        [
          85.3458758,
          27.7291192
        ],
        [
          85.3459003,
          27.7290186
        ],
        [
          85.3459078,
          27.7289073
        ],
        [
          85.3459113,
          27.7287965
        ],
        [
          85.3459051,
          27.7286757
        ],
        [
          85.345897,
          27.7285435
        ],
        [
          85.3458809,
          27.7284179
        ],
        [
          85.3458649,
          27.7283161
        ],
        [
          85.3458323,
          27.7281887
        ],
        [
          85.3457103,
          27.7278019
        ],
        [
          85.3456399,
          27.7275587
        ],
        [
          85.3456129,
          27.7274584
        ],
        [
          85.345599,
          27.7274069
        ],
        [
          85.3454895,
          27.7271058
        ],
        [
          85.34528,
          27.7264772
        ],
        [
          85.3452419,
          27.7263684
        ],
        [
          85.3450879,
          27.7258817
        ],
        [
          85.3450361,
          27.7257317
        ],
        [
          85.3448711,
          27.725233
        ],
        [
          85.3448018,
          27.7248772
        ],
        [
          85.3447832,
          27.724743
        ],
        [
          85.3447682,
          27.7245205
        ],
        [
          85.3447726,
          27.7243487
        ],
        [
          85.3447875,
          27.7241902
        ],
        [
          85.3448141,
          27.724047
        ],
        [
          85.3448934,
          27.7237309
        ],
        [
          85.3450071,
          27.7234061
        ],
        [
          85.3450663,
          27.7232463
        ],
        [
          85.345258,
          27.7227604
        ],
        [
          85.3453056,
          27.7226537
        ],
        [
          85.3453113,
          27.7226282
        ],
        [
          85.3453463,
          27.7225242
        ],
        [
          85.3454401,
          27.7222872
        ],
        [
          85.3456208,
          27.721818
        ],
        [
          85.3459236,
          27.7210319
        ],
        [
          85.3460736,
          27.7206229
        ],
        [
          85.3460906,
          27.7205794
        ],
        [
          85.3462686,
          27.7200875
        ],
        [
          85.3463496,
          27.7198934
        ],
        [
          85.3465198,
          27.7194544
        ],
        [
          85.34679,
          27.7187998
        ],
        [
          85.3468696,
          27.7185132
        ],
        [
          85.3468596,
          27.7183121
        ],
        [
          85.3468432,
          27.7181376
        ],
        [
          85.3468053,
          27.7179852
        ],
        [
          85.3467324,
          27.7177799
        ],
        [
          85.3466383,
          27.7175304
        ],
        [
          85.3466242,
          27.7174792
        ],
        [
          85.346538,
          27.7172423
        ],
        [
          85.346519,
          27.7171424
        ],
        [
          85.3465061,
          27.7170752
        ],
        [
          85.3465029,
          27.7170084
        ],
        [
          85.3464965,
          27.7169641
        ],
        [
          85.3464267,
          27.7166853
        ],
        [
          85.3464028,
          27.7166267
        ],
        [
          85.3463219,
          27.7163914
        ],
        [
          85.3461889,
          27.7160314
        ],
        [
          85.3461215,
          27.7158292
        ],
        [
          85.3460534,
          27.7156423
        ],
        [
          85.3459892,
          27.7154813
        ],
        [
          85.3457683,
          27.714862
        ],
        [
          85.3457598,
          27.7148331
        ],
        [
          85.3456637,
          27.7144179
        ],
        [
          85.3455356,
          27.7136714
        ],
        [
          85.345508,
          27.7135027
        ],
        [
          85.3454648,
          27.7132537
        ],
        [
          85.3454588,
          27.7132392
        ],
        [
          85.345414,
          27.7130685
        ],
        [
          85.3453979,
          27.7130244
        ],
        [
          85.345374,
          27.7129639
        ],
        [
          85.345235,
          27.7126376
        ],
        [
          85.3449555,
          27.7119696
        ],
        [
          85.3448608,
          27.7117518
        ],
        [
          85.3447386,
          27.7114825
        ],
        [
          85.3442991,
          27.7106339
        ],
        [
          85.3442451,
          27.7105365
        ],
        [
          85.3441997,
          27.7104258
        ],
        [
          85.3441715,
          27.7103426
        ],
        [
          85.3441101,
          27.7101193
        ],
        [
          85.3440737,
          27.7099004
        ],
        [
          85.3440077,
          27.709623
        ],
        [
          85.3439639,
          27.7094195
        ],
        [
          85.3439018,
          27.7091376
        ],
        [
          85.3438505,
          27.7089976
        ],
        [
          85.3436763,
          27.7086167
        ],
        [
          85.3434595,
          27.7080967
        ],
        [
          85.343436,
          27.7080382
        ],
        [
          85.3433993,
          27.7079563
        ],
        [
          85.3432989,
          27.7077664
        ],
        [
          85.3435495,
          27.7076918
        ],
        [
          85.3436049,
          27.7076719
        ],
        [
          85.3437482,
          27.7076096
        ],
        [
          85.3439455,
          27.7074702
        ],
        [
          85.3442788,
          27.7071989
        ],
        [
          85.3444733,
          27.7070517
        ],
        [
          85.3447029,
          27.706897
        ],
        [
          85.3448065,
          27.7068196
        ],
        [
          85.3450531,
          27.7066254
        ],
        [
          85.345181,
          27.7065173
        ],
        [
          85.3455696,
          27.7061986
        ],
        [
          85.3457409,
          27.7060874
        ],
        [
          85.3458659,
          27.7060159
        ],
        [
          85.3460034,
          27.7059446
        ],
        [
          85.346133,
          27.7058865
        ],
        [
          85.3462779,
          27.7058358
        ],
        [
          85.3463796,
          27.7058161
        ],
        [
          85.3465538,
          27.70578
        ],
        [
          85.346716,
          27.7057645
        ],
        [
          85.3468248,
          27.7057615
        ],
        [
          85.3469027,
          27.7057594
        ],
        [
          85.3470247,
          27.7057542
        ],
        [
          85.347173,
          27.7057634
        ],
        [
          85.3472993,
          27.7057711
        ],
        [
          85.3475555,
          27.7058051
        ],
        [
          85.3478595,
          27.7058538
        ],
        [
          85.3481248,
          27.7058959
        ],
        [
          85.348729,
          27.7059846
        ],
        [
          85.3488756,
          27.7060097
        ],
        [
          85.3493909,
          27.7060924
        ],
        [
          85.3495282,
          27.7061091
        ],
        [
          85.3498304,
          27.7061563
        ],
        [
          85.3500792,
          27.7061987
        ],
        [
          85.3502903,
          27.7062321
        ],
        [
          85.350451,
          27.7062408
        ],
        [
          85.3506808,
          27.706217
        ],
        [
          85.3507685,
          27.7062061
        ],
        [
          85.3509545,
          27.7061528
        ],
        [
          85.3510875,
          27.7061044
        ],
        [
          85.351232,
          27.7060389
        ],
        [
          85.35135,
          27.705952
        ],
        [
          85.3514793,
          27.7058507
        ],
        [
          85.3516022,
          27.7057471
        ],
        [
          85.3516788,
          27.7056617
        ],
        [
          85.3517742,
          27.705521
        ],
        [
          85.3518319,
          27.7053918
        ],
        [
          85.3518632,
          27.7053165
        ],
        [
          85.351905,
          27.7051505
        ],
        [
          85.3519338,
          27.7050294
        ],
        [
          85.3519478,
          27.7048591
        ],
        [
          85.3519885,
          27.7043249
        ],
        [
          85.3519987,
          27.7039451
        ],
        [
          85.3520278,
          27.7034717
        ],
        [
          85.3520648,
          27.7031872
        ],
        [
          85.3520938,
          27.7030185
        ],
        [
          85.3521537,
          27.7028275
        ],
        [
          85.3522194,
          27.702656
        ],
        [
          85.3523094,
          27.7024748
        ],
        [
          85.3523957,
          27.7023449
        ],
        [
          85.3525127,
          27.7021709
        ],
        [
          85.3526633,
          27.7019732
        ],
        [
          85.3528043,
          27.7017851
        ],
        [
          85.3528632,
          27.701712
        ],
        [
          85.3530101,
          27.7015407
        ],
        [
          85.3531934,
          27.701312
        ],
        [
          85.3532475,
          27.7012446
        ],
        [
          85.353326,
          27.7011476
        ],
        [
          85.3533481,
          27.7011189
        ],
        [
          85.353492,
          27.700936
        ],
        [
          85.3535326,
          27.7008842
        ],
        [
          85.3536988,
          27.7006668
        ],
        [
          85.3538061,
          27.7005228
        ],
        [
          85.3539172,
          27.7003839
        ],
        [
          85.3541859,
          27.7000367
        ],
        [
          85.3544929,
          27.6996448
        ],
        [
          85.3545943,
          27.6995007
        ],
        [
          85.3547493,
          27.6992928
        ],
        [
          85.3548471,
          27.6991273
        ],
        [
          85.3549188,
          27.698987
        ],
        [
          85.3550274,
          27.6987338
        ],
        [
          85.3550978,
          27.6985349
        ],
        [
          85.355164,
          27.6983249
        ],
        [
          85.3551851,
          27.6982262
        ],
        [
          85.3552252,
          27.6980489
        ],
        [
          85.3552436,
          27.6978449
        ],
        [
          85.3552459,
          27.697748
        ],
        [
          85.3552486,
          27.6976364
        ],
        [
          85.355231,
          27.6973366
        ],
        [
          85.3551636,
          27.6968036
        ],
        [
          85.3551231,
          27.6963827
        ],
        [
          85.3551073,
          27.6962746
        ],
        [
          85.3550507,
          27.6957383
        ],
        [
          85.355045,
          27.695623
        ],
        [
          85.355046,
          27.6954887
        ],
        [
          85.3549836,
          27.6953758
        ],
        [
          85.3549709,
          27.6953359
        ],
        [
          85.3549541,
          27.6952828
        ],
        [
          85.3549382,
          27.6952328
        ],
        [
          85.3549229,
          27.6951467
        ],
        [
          85.3549272,
          27.695031
        ],
        [
          85.3548504,
          27.6948693
        ],
        [
          85.3547441,
          27.6946455
        ],
        [
          85.3545268,
          27.6942675
        ],
        [
          85.3541998,
          27.6936908
        ],
        [
          85.3537024,
          27.6928085
        ],
        [
          85.3534939,
          27.692438
        ],
        [
          85.3528405,
          27.6912796
        ],
        [
          85.3527794,
          27.691169
        ],
        [
          85.3525008,
          27.6906714
        ],
        [
          85.3521872,
          27.6901621
        ],
        [
          85.3517832,
          27.6894725
        ],
        [
          85.3513712,
          27.6887334
        ],
        [
          85.350853,
          27.6878333
        ],
        [
          85.3506999,
          27.6875859
        ],
        [
          85.3505954,
          27.6874192
        ],
        [
          85.3505222,
          27.6873064
        ],
        [
          85.3500447,
          27.6864899
        ],
        [
          85.3499468,
          27.6863099
        ],
        [
          85.3498605,
          27.6861433
        ],
        [
          85.3497848,
          27.6859894
        ],
        [
          85.3497189,
          27.6858472
        ],
        [
          85.349662,
          27.6857158
        ],
        [
          85.3496132,
          27.6855945
        ],
        [
          85.3495715,
          27.6854822
        ],
        [
          85.3495362,
          27.6853782
        ],
        [
          85.3495064,
          27.6852815
        ],
        [
          85.3494812,
          27.6851913
        ],
        [
          85.3494598,
          27.6851067
        ],
        [
          85.3494412,
          27.6850268
        ],
        [
          85.3494109,
          27.6848793
        ],
        [
          85.3493889,
          27.6847453
        ],
        [
          85.3493732,
          27.684621
        ],
        [
          85.3493624,
          27.6845024
        ],
        [
          85.3493514,
          27.6843267
        ],
        [
          85.3493483,
          27.6842668
        ],
        [
          85.34932,
          27.6840689
        ],
        [
          85.3492953,
          27.6839762
        ],
        [
          85.3492454,
          27.6838748
        ],
        [
          85.3491883,
          27.683801
        ],
        [
          85.349122,
          27.6836967
        ],
        [
          85.3490582,
          27.6835176
        ],
        [
          85.34913,
          27.6833559
        ],
        [
          85.3491982,
          27.683178
        ],
        [
          85.3492838,
          27.6828628
        ],
        [
          85.3493143,
          27.682709
        ],
        [
          85.3493306,
          27.6826266
        ],
        [
          85.3493881,
          27.6821914
        ],
        [
          85.349455,
          27.6816626
        ],
        [
          85.3494661,
          27.6813295
        ],
        [
          85.3494947,
          27.6804688
        ],
        [
          85.3495283,
          27.6789303
        ],
        [
          85.3495298,
          27.6788173
        ],
        [
          85.3495325,
          27.6787201
        ],
        [
          85.3494885,
          27.6787122
        ],
        [
          85.3494368,
          27.6786968
        ],
        [
          85.3493889,
          27.6786761
        ],
        [
          85.3492973,
          27.6786278
        ],
        [
          85.3492724,
          27.678612
        ],
        [
          85.3488421,
          27.6783339
        ],
        [
          85.3479743,
          27.6777836
        ],
        [
          85.3475803,
          27.6775403
        ],
        [
          85.3469765,
          27.6771376
        ],
        [
          85.3464541,
          27.6768023
        ],
        [
          85.3458279,
          27.6763889
        ],
        [
          85.3449806,
          27.6758348
        ],
        [
          85.3446061,
          27.6755847
        ],
        [
          85.3443584,
          27.6754129
        ],
        [
          85.3441777,
          27.6752838
        ],
        [
          85.3440013,
          27.6751464
        ],
        [
          85.3437807,
          27.6749556
        ],
        [
          85.3435727,
          27.6747743
        ],
        [
          85.3434054,
          27.6746152
        ],
        [
          85.3431943,
          27.6744051
        ],
        [
          85.34297,
          27.6741677
        ],
        [
          85.342677,
          27.6738601
        ],
        [
          85.3425924,
          27.6737776
        ],
        [
          85.3424478,
          27.6736317
        ],
        [
          85.3422921,
          27.6734799
        ],
        [
          85.3414907,
          27.6726465
        ],
        [
          85.3411704,
          27.6723191
        ],
        [
          85.3407781,
          27.6719162
        ],
        [
          85.3405732,
          27.6717123
        ],
        [
          85.3403481,
          27.6715176
        ],
        [
          85.3401084,
          27.6713238
        ],
        [
          85.3398467,
          27.6711356
        ],
        [
          85.3395896,
          27.6709683
        ],
        [
          85.3393362,
          27.6708263
        ],
        [
          85.3378246,
          27.6700244
        ],
        [
          85.337687,
          27.669951
        ],
        [
          85.3351797,
          27.6686124
        ],
        [
          85.3344757,
          27.6682368
        ],
        [
          85.333935,
          27.6679502
        ],
        [
          85.3333557,
          27.6676298
        ],
        [
          85.3330681,
          27.6674519
        ],
        [
          85.3328607,
          27.6673012
        ],
        [
          85.3326798,
          27.6671487
        ],
        [
          85.3325101,
          27.6669757
        ],
        [
          85.3323597,
          27.6668242
        ],
        [
          85.3322536,
          27.6666918
        ],
        [
          85.3322078,
          27.6666348
        ],
        [
          85.3321249,
          27.6665378
        ],
        [
          85.3320012,
          27.6663986
        ],
        [
          85.331772,
          27.6661162
        ],
        [
          85.3315376,
          27.6658284
        ],
        [
          85.3313559,
          27.6656022
        ],
        [
          85.3312638,
          27.6654896
        ],
        [
          85.3307933,
          27.6649236
        ],
        [
          85.3301377,
          27.664123
        ],
        [
          85.3296338,
          27.6635076
        ],
        [
          85.3294295,
          27.6632582
        ],
        [
          85.3279639,
          27.6614791
        ],
        [
          85.3274439,
          27.6608528
        ],
        [
          85.3271587,
          27.6605046
        ],
        [
          85.3270824,
          27.6604145
        ],
        [
          85.3270008,
          27.6603213
        ],
        [
          85.3269141,
          27.660226
        ],
        [
          85.3268223,
          27.6601292
        ],
        [
          85.3267255,
          27.6600316
        ],
        [
          85.3266239,
          27.659934
        ],
        [
          85.3265173,
          27.6598372
        ],
        [
          85.326406,
          27.6597418
        ],
        [
          85.32629,
          27.6596487
        ],
        [
          85.3261694,
          27.6595585
        ],
        [
          85.3260443,
          27.6594721
        ],
        [
          85.3259182,
          27.65939
        ],
        [
          85.3256782,
          27.6592403
        ],
        [
          85.3255671,
          27.6591737
        ],
        [
          85.3253697,
          27.6590593
        ],
        [
          85.3252148,
          27.658973
        ],
        [
          85.3250773,
          27.6588996
        ],
        [
          85.3248303,
          27.6587552
        ],
        [
          85.32474,
          27.6587024
        ],
        [
          85.3246361,
          27.6586416
        ],
        [
          85.3242421,
          27.6584126
        ],
        [
          85.3237328,
          27.6581118
        ],
        [
          85.3235758,
          27.6580249
        ],
        [
          85.323498,
          27.6579848
        ],
        [
          85.3233488,
          27.6579158
        ],
        [
          85.3232793,
          27.6578889
        ],
        [
          85.3232145,
          27.6578685
        ],
        [
          85.3231521,
          27.6578534
        ],
        [
          85.3230889,
          27.6578419
        ],
        [
          85.3230254,
          27.6578339
        ],
        [
          85.3229619,
          27.6578292
        ],
        [
          85.3228987,
          27.6578278
        ],
        [
          85.3228361,
          27.6578294
        ],
        [
          85.3227745,
          27.6578341
        ],
        [
          85.3227142,
          27.6578416
        ],
        [
          85.3226555,
          27.6578519
        ],
        [
          85.3225988,
          27.6578648
        ],
        [
          85.3225443,
          27.6578802
        ],
        [
          85.3224925,
          27.657898
        ],
        [
          85.3223896,
          27.6579503
        ],
        [
          85.3222618,
          27.6580262
        ],
        [
          85.3221314,
          27.6581281
        ],
        [
          85.3209881,
          27.6590959
        ],
        [
          85.320879,
          27.6591834
        ],
        [
          85.3196253,
          27.6601886
        ],
        [
          85.3185806,
          27.661061
        ],
        [
          85.3182187,
          27.6613437
        ],
        [
          85.3181949,
          27.6613613
        ],
        [
          85.3178513,
          27.6616154
        ],
        [
          85.317577,
          27.6618463
        ],
        [
          85.3174434,
          27.6619556
        ],
        [
          85.3170112,
          27.6623093
        ],
        [
          85.3156739,
          27.6633717
        ],
        [
          85.3149906,
          27.6639223
        ],
        [
          85.3140995,
          27.6646526
        ],
        [
          85.3139737,
          27.6647537
        ],
        [
          85.3137603,
          27.6648897
        ],
        [
          85.3136497,
          27.6649588
        ],
        [
          85.3135497,
          27.6650155
        ],
        [
          85.3134372,
          27.6650696
        ],
        [
          85.3132998,
          27.6651376
        ],
        [
          85.3130874,
          27.6652238
        ],
        [
          85.3130076,
          27.6652469
        ],
        [
          85.3124256,
          27.6654143
        ],
        [
          85.3113512,
          27.6657151
        ],
        [
          85.3101702,
          27.6660663
        ],
        [
          85.3092615,
          27.6663288
        ],
        [
          85.3089371,
          27.6664211
        ],
        [
          85.3087796,
          27.6664659
        ],
        [
          85.3083787,
          27.6665931
        ],
        [
          85.3082712,
          27.6666338
        ],
        [
          85.3082083,
          27.6666576
        ],
        [
          85.3081332,
          27.6667049
        ],
        [
          85.308021,
          27.6667718
        ],
        [
          85.3078499,
          27.6668886
        ],
        [
          85.3076849,
          27.6670285
        ],
        [
          85.307511,
          27.6672295
        ],
        [
          85.3073997,
          27.6673773
        ],
        [
          85.3072799,
          27.6675306
        ],
        [
          85.307021,
          27.6678833
        ],
        [
          85.3068949,
          27.668032
        ],
        [
          85.3062795,
          27.668822
        ],
        [
          85.3050206,
          27.6704306
        ],
        [
          85.3040036,
          27.6717154
        ],
        [
          85.3034439,
          27.6724246
        ],
        [
          85.3028391,
          27.673221
        ],
        [
          85.3027064,
          27.6733908
        ],
        [
          85.3025666,
          27.6735946
        ],
        [
          85.302458,
          27.6737656
        ],
        [
          85.3023653,
          27.673925
        ],
        [
          85.3022602,
          27.6741288
        ],
        [
          85.3022087,
          27.6742526
        ],
        [
          85.3021649,
          27.6743715
        ],
        [
          85.3021324,
          27.6744791
        ],
        [
          85.3020864,
          27.674651
        ],
        [
          85.3020443,
          27.6748565
        ],
        [
          85.3020177,
          27.6750268
        ],
        [
          85.3020008,
          27.6752122
        ],
        [
          85.3019915,
          27.6753738
        ],
        [
          85.3019885,
          27.6755335
        ],
        [
          85.3019915,
          27.6757119
        ],
        [
          85.3020222,
          27.6762664
        ],
        [
          85.3020501,
          27.6768248
        ],
        [
          85.3020755,
          27.6775805
        ],
        [
          85.3020845,
          27.6778142
        ],
        [
          85.3020878,
          27.6778994
        ],
        [
          85.3021117,
          27.6782615
        ],
        [
          85.3021147,
          27.6784327
        ],
        [
          85.3021297,
          27.6787263
        ],
        [
          85.3021541,
          27.6793068
        ],
        [
          85.3021728,
          27.6799967
        ],
        [
          85.3021871,
          27.680462
        ],
        [
          85.3022209,
          27.6808037
        ],
        [
          85.3022397,
          27.6811437
        ],
        [
          85.3022595,
          27.6816638
        ],
        [
          85.3022674,
          27.6818438
        ],
        [
          85.3022941,
          27.6823966
        ],
        [
          85.3023013,
          27.6825287
        ],
        [
          85.3023149,
          27.6827759
        ],
        [
          85.3023369,
          27.6831022
        ],
        [
          85.3023309,
          27.6833264
        ],
        [
          85.3023218,
          27.6834411
        ],
        [
          85.3023014,
          27.6835412
        ],
        [
          85.3022778,
          27.6836181
        ],
        [
          85.3022577,
          27.683686
        ],
        [
          85.3022238,
          27.6837638
        ],
        [
          85.3021931,
          27.6838206
        ],
        [
          85.3021538,
          27.6838761
        ],
        [
          85.3021128,
          27.683933
        ],
        [
          85.3020668,
          27.6839879
        ],
        [
          85.3020164,
          27.6840381
        ],
        [
          85.3019446,
          27.6840986
        ],
        [
          85.3018728,
          27.684152
        ],
        [
          85.3017915,
          27.6842003
        ],
        [
          85.3016962,
          27.6842489
        ],
        [
          85.3016383,
          27.6842784
        ],
        [
          85.3015036,
          27.684326
        ],
        [
          85.3013618,
          27.6843674
        ],
        [
          85.3012544,
          27.6843875
        ],
        [
          85.3011204,
          27.6844088
        ],
        [
          85.3010264,
          27.6844191
        ],
        [
          85.3001345,
          27.684527
        ],
        [
          85.2988406,
          27.6846827
        ],
        [
          85.2983445,
          27.6847363
        ],
        [
          85.2982213,
          27.6847496
        ],
        [
          85.2980693,
          27.6847686
        ],
        [
          85.2980356,
          27.6847728
        ],
        [
          85.2975033,
          27.6848377
        ],
        [
          85.2974932,
          27.6848386
        ],
        [
          85.2972927,
          27.6848568
        ],
        [
          85.2971612,
          27.6848722
        ],
        [
          85.2956052,
          27.6850541
        ],
        [
          85.2945173,
          27.6851845
        ],
        [
          85.2941234,
          27.6852335
        ],
        [
          85.2938211,
          27.6852999
        ],
        [
          85.2935413,
          27.685402
        ],
        [
          85.2932703,
          27.685533
        ],
        [
          85.2932065,
          27.6855676
        ],
        [
          85.293033,
          27.6856615
        ],
        [
          85.292803,
          27.6858103
        ],
        [
          85.2925549,
          27.6860062
        ],
        [
          85.2918633,
          27.6865368
        ],
        [
          85.2908959,
          27.6872657
        ],
        [
          85.2906695,
          27.6874197
        ],
        [
          85.2904378,
          27.6875487
        ],
        [
          85.2902303,
          27.687648
        ],
        [
          85.2900939,
          27.6876978
        ],
        [
          85.2899761,
          27.6877387
        ],
        [
          85.2898323,
          27.6877878
        ],
        [
          85.2896982,
          27.6878264
        ],
        [
          85.2895399,
          27.6878635
        ],
        [
          85.2893414,
          27.6879009
        ],
        [
          85.2889662,
          27.687964
        ],
        [
          85.2882532,
          27.6880611
        ],
        [
          85.2872528,
          27.6882102
        ],
        [
          85.2868889,
          27.6882688
        ],
        [
          85.2861933,
          27.6883656
        ],
        [
          85.285779,
          27.6884248
        ],
        [
          85.2856279,
          27.6884464
        ],
        [
          85.2853508,
          27.6884967
        ],
        [
          85.2851143,
          27.6885549
        ],
        [
          85.2849689,
          27.6886013
        ],
        [
          85.2848314,
          27.688669
        ],
        [
          85.2846513,
          27.6887652
        ],
        [
          85.28451,
          27.6888674
        ],
        [
          85.2843466,
          27.6890109
        ],
        [
          85.2842006,
          27.6891406
        ],
        [
          85.2841203,
          27.689237
        ],
        [
          85.2840459,
          27.6893267
        ],
        [
          85.2840234,
          27.689362
        ],
        [
          85.2839107,
          27.6895252
        ],
        [
          85.2835509,
          27.6900667
        ],
        [
          85.2831134,
          27.6906907
        ],
        [
          85.282767,
          27.69119
        ],
        [
          85.2823484,
          27.6918159
        ],
        [
          85.2819266,
          27.6924354
        ],
        [
          85.2818125,
          27.6926629
        ],
        [
          85.2818005,
          27.6926881
        ],
        [
          85.2817799,
          27.6927431
        ],
        [
          85.2817363,
          27.6928635
        ],
        [
          85.2817022,
          27.6929666
        ],
        [
          85.2816704,
          27.6931475
        ],
        [
          85.2816289,
          27.6933589
        ],
        [
          85.2816121,
          27.6936328
        ],
        [
          85.2815906,
          27.6938632
        ],
        [
          85.2815712,
          27.6942387
        ],
        [
          85.281525,
          27.6950889
        ],
        [
          85.2815021,
          27.6956643
        ],
        [
          85.2815018,
          27.6959645
        ],
        [
          85.281482,
          27.6962737
        ],
        [
          85.2814201,
          27.6969243
        ],
        [
          85.2814029,
          27.6971916
        ],
        [
          85.2813895,
          27.6976285
        ],
        [
          85.2813922,
          27.6980133
        ],
        [
          85.2813963,
          27.69846
        ],
        [
          85.281421,
          27.6987234
        ],
        [
          85.2815134,
          27.6989596
        ],
        [
          85.2815591,
          27.6992547
        ],
        [
          85.2815792,
          27.6994157
        ],
        [
          85.2816026,
          27.6996358
        ],
        [
          85.2816047,
          27.6996695
        ],
        [
          85.2816073,
          27.6996955
        ],
        [
          85.2816681,
          27.7002957
        ],
        [
          85.28168,
          27.7003815
        ],
        [
          85.2817152,
          27.7006424
        ],
        [
          85.2818236,
          27.7015833
        ],
        [
          85.2818675,
          27.7021342
        ],
        [
          85.281941,
          27.7026513
        ],
        [
          85.2820065,
          27.7031909
        ],
        [
          85.2820158,
          27.7032622
        ],
        [
          85.2820579,
          27.7035831
        ],
        [
          85.2820877,
          27.7037978
        ],
        [
          85.2821641,
          27.704347
        ],
        [
          85.2821725,
          27.7044231
        ],
        [
          85.2822673,
          27.7054597
        ],
        [
          85.2823994,
          27.7065042
        ],
        [
          85.2824436,
          27.7068745
        ],
        [
          85.282467,
          27.7071842
        ],
        [
          85.2824928,
          27.7074532
        ],
        [
          85.2825253,
          27.7076696
        ],
        [
          85.2826305,
          27.7083399
        ],
        [
          85.2826905,
          27.7088598
        ],
        [
          85.2827938,
          27.7096561
        ],
        [
          85.2828367,
          27.710127
        ],
        [
          85.2828901,
          27.7105261
        ],
        [
          85.2828965,
          27.7105692
        ],
        [
          85.2829329,
          27.7110072
        ],
        [
          85.2830391,
          27.7120517
        ],
        [
          85.2831086,
          27.7125505
        ],
        [
          85.2831735,
          27.713033
        ],
        [
          85.2832261,
          27.713482
        ],
        [
          85.2832975,
          27.7140443
        ],
        [
          85.2833847,
          27.7146851
        ],
        [
          85.2834369,
          27.7152126
        ],
        [
          85.283506,
          27.7157416
        ],
        [
          85.2835417,
          27.716017
        ],
        [
          85.2835844,
          27.7163584
        ],
        [
          85.2836073,
          27.7165157
        ],
        [
          85.283656,
          27.7168926
        ],
        [
          85.2836949,
          27.7171881
        ],
        [
          85.2837083,
          27.7173156
        ],
        [
          85.283727,
          27.7174509
        ],
        [
          85.2837551,
          27.7175941
        ],
        [
          85.283777,
          27.7176872
        ],
        [
          85.2838078,
          27.7177859
        ],
        [
          85.2838613,
          27.7179166
        ],
        [
          85.2839397,
          27.718036
        ],
        [
          85.2839851,
          27.7180901
        ],
        [
          85.2840431,
          27.7181506
        ],
        [
          85.2841113,
          27.7182125
        ],
        [
          85.2841598,
          27.7182545
        ],
        [
          85.2842579,
          27.718325
        ],
        [
          85.2843769,
          27.7184005
        ],
        [
          85.2844693,
          27.7184463
        ],
        [
          85.2846575,
          27.7185378
        ],
        [
          85.2852151,
          27.7188009
        ],
        [
          85.2854618,
          27.7189174
        ],
        [
          85.2856774,
          27.7190191
        ],
        [
          85.2864681,
          27.719407
        ],
        [
          85.2867776,
          27.7195656
        ],
        [
          85.2868963,
          27.7196267
        ],
        [
          85.2871035,
          27.7197207
        ],
        [
          85.2871608,
          27.7197452
        ],
        [
          85.2876372,
          27.719964
        ],
        [
          85.2879151,
          27.7200973
        ],
        [
          85.2881653,
          27.7202268
        ],
        [
          85.2883261,
          27.7203088
        ],
        [
          85.2885972,
          27.7204524
        ],
        [
          85.2888265,
          27.7205682
        ],
        [
          85.2891576,
          27.7207127
        ],
        [
          85.2894131,
          27.7208377
        ],
        [
          85.2898821,
          27.7210711
        ],
        [
          85.2902296,
          27.721233
        ],
        [
          85.2904089,
          27.7213217
        ],
        [
          85.2907336,
          27.7214667
        ],
        [
          85.2917657,
          27.721986
        ],
        [
          85.292744,
          27.7224636
        ],
        [
          85.2928437,
          27.7225087
        ],
        [
          85.2929068,
          27.7225414
        ],
        [
          85.2930068,
          27.7225855
        ],
        [
          85.2932317,
          27.7226991
        ],
        [
          85.2934589,
          27.7228076
        ],
        [
          85.29368,
          27.7229111
        ],
        [
          85.2941084,
          27.7231108
        ],
        [
          85.2945445,
          27.7233079
        ],
        [
          85.2948822,
          27.7234658
        ],
        [
          85.2953153,
          27.7237086
        ],
        [
          85.2958248,
          27.723956
        ],
        [
          85.2961581,
          27.7241208
        ],
        [
          85.2964207,
          27.7242492
        ],
        [
          85.296678,
          27.724379
        ],
        [
          85.2969927,
          27.7245316
        ],
        [
          85.2972471,
          27.7246563
        ],
        [
          85.2972954,
          27.72468
        ],
        [
          85.297576,
          27.7247853
        ],
        [
          85.2976692,
          27.7248138
        ],
        [
          85.2978068,
          27.7248456
        ],
        [
          85.2979258,
          27.7248728
        ],
        [
          85.2980327,
          27.7248972
        ],
        [
          85.2985367,
          27.7250148
        ],
        [
          85.298764,
          27.7250679
        ],
        [
          85.2988278,
          27.7250827
        ],
        [
          85.2992541,
          27.7251839
        ],
        [
          85.2995433,
          27.7252547
        ],
        [
          85.3001112,
          27.7253946
        ],
        [
          85.3019279,
          27.7258118
        ],
        [
          85.302103,
          27.7258559
        ],
        [
          85.3021394,
          27.7258658
        ],
        [
          85.302717,
          27.7260277
        ],
        [
          85.3029653,
          27.7261078
        ],
        [
          85.3030644,
          27.7261421
        ],
        [
          85.3033367,
          27.7262633
        ],
        [
          85.3035463,
          27.7263784
        ],
        [
          85.3039037,
          27.7266015
        ],
        [
          85.3041394,
          27.7267518
        ],
        [
          85.3044243,
          27.7268912
        ],
        [
          85.3045008,
          27.7269217
        ],
        [
          85.3045421,
          27.7269028
        ],
        [
          85.3045871,
          27.726896
        ],
        [
          85.3046324,
          27.7269015
        ],
        [
          85.3046737,
          27.7269188
        ],
        [
          85.3047072,
          27.7269463
        ],
        [
          85.3047304,
          27.726983
        ],
        [
          85.3047814,
          27.727088
        ],
        [
          85.3049392,
          27.7273126
        ],
        [
          85.3050194,
          27.727448
        ],
        [
          85.3050855,
          27.727599
        ],
        [
          85.3051216,
          27.7276715
        ],
        [
          85.3051548,
          27.7277459
        ],
        [
          85.3051849,
          27.7278206
        ],
        [
          85.3052119,
          27.7278942
        ],
        [
          85.3052355,
          27.7279651
        ],
        [
          85.3052558,
          27.7280317
        ],
        [
          85.3052725,
          27.7280926
        ],
        [
          85.3052875,
          27.7281884
        ],
        [
          85.3052986,
          27.7283149
        ],
        [
          85.3053097,
          27.7286878
        ],
        [
          85.3053172,
          27.7291328
        ],
        [
          85.3053304,
          27.7303255
        ],
        [
          85.3053314,
          27.7304151
        ],
        [
          85.3053422,
          27.7313943
        ],
        [
          85.3053663,
          27.7318909
        ],
        [
          85.3053747,
          27.7321299
        ],
        [
          85.3053814,
          27.7326649
        ],
        [
          85.3053916,
          27.7332326
        ],
        [
          85.3054297,
          27.7343631
        ],
        [
          85.3054439,
          27.7344831
        ],
        [
          85.3054581,
          27.7345933
        ],
        [
          85.3054756,
          27.7346893
        ],
        [
          85.3054964,
          27.7347667
        ],
        [
          85.3055294,
          27.7348292
        ],
        [
          85.3055723,
          27.7349016
        ],
        [
          85.3056264,
          27.7349851
        ],
        [
          85.3056554,
          27.7350298
        ],
        [
          85.3056997,
          27.7350939
        ],
        [
          85.3057413,
          27.7351414
        ],
        [
          85.3057775,
          27.7351782
        ],
        [
          85.3058325,
          27.7352245
        ],
        [
          85.3058928,
          27.7352708
        ],
        [
          85.3059505,
          27.7353087
        ],
        [
          85.3060175,
          27.7353384
        ],
        [
          85.3060859,
          27.7353669
        ],
        [
          85.3061423,
          27.7353823
        ],
        [
          85.3062147,
          27.7353978
        ],
        [
          85.3063112,
          27.7354049
        ],
        [
          85.3064531,
          27.7354052
        ],
        [
          85.3066458,
          27.7353747
        ],
        [
          85.3069201,
          27.7353215
        ],
        [
          85.3075842,
          27.7352167
        ]
      ]
    ]
  }
}